KUIPER-00096            
1 65135U 25171D   26187.73253068  .00000112  00000+0  43694-4 0  9997
2 65135  51.8991 351.6648 0000843 112.3467 247.7585 14.79924592 50529
KUIPER-00097            
1 65136U 25171E   26187.72984838 -.00001994  00000+0 -23272-3 0  9993
2 65136  51.9021 354.3320 0000701 104.7747 255.3293 14.79924894 50471
KUIPER-00098            
1 65137U 25171F   26187.72713888 -.00000509  00000+0 -37749-4 0  9995
2 65137  51.9010 356.7101 0000527  95.2315 264.8708 14.79923760 49794
KUIPER-00099            
1 65138U 25171G   26187.63663113 -.00000409  00000+0 -24662-4 0  9990
2 65138  51.9030 347.1137 0000716 104.9382 255.1660 14.79924302 50573
KUIPER-00100            
1 65139U 25171H   26187.74059904  .00009002  00000+0  12075-2 0  9999
2 65139  51.9021 344.1245 0000483 114.6940 245.4073 14.79959510 50625
KUIPER-00102            
1 65140U 25171J   26187.73791884  .00000941  00000+0  15244-3 0  9995
2 65140  51.8975 346.6257 0000600  76.7042 283.3987 14.79920714 50580
KUIPER-00103            
1 65141U 25171K   26187.75281029 -.00000151  00000+0  92158-5 0  9998
2 65141  51.8996   4.0589 0000781 104.9088 255.1961 14.79924221 50341
KUIPER-00104            
1 65142U 25171L   26187.63122628  .00001699  00000+0  25184-3 0  9995
2 65142  51.9027 352.0938 0000648 102.9597 257.1438 14.79934003 50505
KUIPER-00105            
1 65143U 25171M   26187.72444536  .00001202  00000+0  18662-3 0  9994
2 65143  51.9005 359.2834 0000818 114.4506 245.6542 14.79931589 50417
KUIPER-00106            
1 65144U 25171N   26187.63763578 -.00000525  00000+0 -39853-4 0  9990
2 65144  51.8998 338.4286 0000779 102.5342 257.5707 14.79925221 50703
KUIPER-00107            
1 65145U 25171P   26187.60825463  .00001572  00000+0  23512-3 0  9995
2 65145  51.9017 342.2392 0000475 103.6252 256.4763 14.79932808 50645
KUIPER-00108            
1 65146U 25171Q   26187.76360727  .00000002  00000+0  29239-4 0  9990
2 65146  51.9015 354.0872 0000707 102.4660 257.6381 14.79923228 50494
KUIPER-00109            
1 65147U 25171R   26187.73520797 -.00002111  00000+0 -24795-3 0  9999
2 65147  51.9029 349.1572 0000748 104.5109 255.5936 14.79930226 50554
KUIPER-00110            
1 65148U 25171S   26187.75551838 -.00000357  00000+0 -17880-4 0  9990
2 65148  51.9008   1.6264 0000766 106.2419 253.8628 14.79923936 50372
KUIPER-00111            
1 65149U 25171T   26187.71633466  .00001193  00000+0  18552-3 0  9998
2 65149  51.8986   6.6795 0000604 107.0442 253.0586 14.79929501 50309
KUIPER-00112            
1 65150U 25171U   26187.70146183  .00001440  00000+0  21791-3 0  9998
2 65150  51.9022 349.3539 0000593 113.2751 246.8274 14.79932593 50540
