{"fetched_at":"2026-07-07T07:58:09.009Z","source":"https://celestrak.org/NORAD/elements/gp.php?GROUP=kuiper&FORMAT=JSON","constellation":"kuiper","records":[{"OBJECT_NAME":"KUIPER-00096","OBJECT_ID":"2025-171D","EPOCH":"2026-07-06T17:34:50.650752","CLASSIFICATION_TYPE":"U","MEAN_MOTION":14.79924592,"ECCENTRICITY":0.0000843,"INCLINATION":51.8991,"RA_OF_ASC_NODE":351.6648,"ARG_OF_PERICENTER":112.3467,"MEAN_ANOMALY":247.7585,"EPHEMERIS_TYPE":0,"NORAD_CAT_ID":65135,"ELEMENT_SET_NO":999,"REV_AT_EPOCH":5052,"BSTAR":0.000043694,"MEAN_MOTION_DOT":0.00000112,"MEAN_MOTION_DDOT":0},{"OBJECT_NAME":"KUIPER-00097","OBJECT_ID":"2025-171E","EPOCH":"2026-07-06T17:30:58.900032","CLASSIFICATION_TYPE":"U","MEAN_MOTION":14.79924894,"ECCENTRICITY":0.0000701,"INCLINATION":51.9021,"RA_OF_ASC_NODE":354.332,"ARG_OF_PERICENTER":104.7747,"MEAN_ANOMALY":255.3293,"EPHEMERIS_TYPE":0,"NORAD_CAT_ID":65136,"ELEMENT_SET_NO":999,"REV_AT_EPOCH":5047,"BSTAR":-0.00023272,"MEAN_MOTION_DOT":-0.00001994,"MEAN_MOTION_DDOT":0},{"OBJECT_NAME":"KUIPER-00098","OBJECT_ID":"2025-171F","EPOCH":"2026-07-06T17:27:04.799232","CLASSIFICATION_TYPE":"U","MEAN_MOTION":14.7992376,"ECCENTRICITY":0.0000527,"INCLINATION":51.901,"RA_OF_ASC_NODE":356.7101,"ARG_OF_PERICENTER":95.2315,"MEAN_ANOMALY":264.8708,"EPHEMERIS_TYPE":0,"NORAD_CAT_ID":65137,"ELEMENT_SET_NO":999,"REV_AT_EPOCH":4979,"BSTAR":-0.000037749,"MEAN_MOTION_DOT":-0.00000509,"MEAN_MOTION_DDOT":0},{"OBJECT_NAME":"KUIPER-00099","OBJECT_ID":"2025-171G","EPOCH":"2026-07-06T15:16:44.929632","CLASSIFICATION_TYPE":"U","MEAN_MOTION":14.79924302,"ECCENTRICITY":0.0000716,"INCLINATION":51.903,"RA_OF_ASC_NODE":347.1137,"ARG_OF_PERICENTER":104.9382,"MEAN_ANOMALY":255.166,"EPHEMERIS_TYPE":0,"NORAD_CAT_ID":65138,"ELEMENT_SET_NO":999,"REV_AT_EPOCH":5057,"BSTAR":-0.000024662,"MEAN_MOTION_DOT":-0.00000409,"MEAN_MOTION_DDOT":0},{"OBJECT_NAME":"KUIPER-00100","OBJECT_ID":"2025-171H","EPOCH":"2026-07-06T17:46:27.757056","CLASSIFICATION_TYPE":"U","MEAN_MOTION":14.7995951,"ECCENTRICITY":0.0000483,"INCLINATION":51.9021,"RA_OF_ASC_NODE":344.1245,"ARG_OF_PERICENTER":114.694,"MEAN_ANOMALY":245.4073,"EPHEMERIS_TYPE":0,"NORAD_CAT_ID":65139,"ELEMENT_SET_NO":999,"REV_AT_EPOCH":5062,"BSTAR":0.0012075,"MEAN_MOTION_DOT":0.00009002,"MEAN_MOTION_DDOT":0},{"OBJECT_NAME":"KUIPER-00102","OBJECT_ID":"2025-171J","EPOCH":"2026-07-06T17:42:36.187776","CLASSIFICATION_TYPE":"U","MEAN_MOTION":14.79920714,"ECCENTRICITY":0.00006,"INCLINATION":51.8975,"RA_OF_ASC_NODE":346.6257,"ARG_OF_PERICENTER":76.7042,"MEAN_ANOMALY":283.3987,"EPHEMERIS_TYPE":0,"NORAD_CAT_ID":65140,"ELEMENT_SET_NO":999,"REV_AT_EPOCH":5058,"BSTAR":0.00015244,"MEAN_MOTION_DOT":0.00000941,"MEAN_MOTION_DDOT":0},{"OBJECT_NAME":"KUIPER-00103","OBJECT_ID":"2025-171K","EPOCH":"2026-07-06T18:04:02.809056","CLASSIFICATION_TYPE":"U","MEAN_MOTION":14.79924221,"ECCENTRICITY":0.0000781,"INCLINATION":51.8996,"RA_OF_ASC_NODE":4.0589,"ARG_OF_PERICENTER":104.9088,"MEAN_ANOMALY":255.1961,"EPHEMERIS_TYPE":0,"NORAD_CAT_ID":65141,"ELEMENT_SET_NO":999,"REV_AT_EPOCH":5034,"BSTAR":0.0000092158,"MEAN_MOTION_DOT":-0.00000151,"MEAN_MOTION_DDOT":0},{"OBJECT_NAME":"KUIPER-00104","OBJECT_ID":"2025-171L","EPOCH":"2026-07-06T15:08:57.950592","CLASSIFICATION_TYPE":"U","MEAN_MOTION":14.79934003,"ECCENTRICITY":0.0000648,"INCLINATION":51.9027,"RA_OF_ASC_NODE":352.0938,"ARG_OF_PERICENTER":102.9597,"MEAN_ANOMALY":257.1438,"EPHEMERIS_TYPE":0,"NORAD_CAT_ID":65142,"ELEMENT_SET_NO":999,"REV_AT_EPOCH":5050,"BSTAR":0.00025184,"MEAN_MOTION_DOT":0.00001699,"MEAN_MOTION_DDOT":0},{"OBJECT_NAME":"KUIPER-00105","OBJECT_ID":"2025-171M","EPOCH":"2026-07-06T17:23:12.079104","CLASSIFICATION_TYPE":"U","MEAN_MOTION":14.79931589,"ECCENTRICITY":0.0000818,"INCLINATION":51.9005,"RA_OF_ASC_NODE":359.2834,"ARG_OF_PERICENTER":114.4506,"MEAN_ANOMALY":245.6542,"EPHEMERIS_TYPE":0,"NORAD_CAT_ID":65143,"ELEMENT_SET_NO":999,"REV_AT_EPOCH":5041,"BSTAR":0.00018662,"MEAN_MOTION_DOT":0.00001202,"MEAN_MOTION_DDOT":0},{"OBJECT_NAME":"KUIPER-00106","OBJECT_ID":"2025-171N","EPOCH":"2026-07-06T15:18:11.731392","CLASSIFICATION_TYPE":"U","MEAN_MOTION":14.79925221,"ECCENTRICITY":0.0000779,"INCLINATION":51.8998,"RA_OF_ASC_NODE":338.4286,"ARG_OF_PERICENTER":102.5342,"MEAN_ANOMALY":257.5707,"EPHEMERIS_TYPE":0,"NORAD_CAT_ID":65144,"ELEMENT_SET_NO":999,"REV_AT_EPOCH":5070,"BSTAR":-0.000039853,"MEAN_MOTION_DOT":-0.00000525,"MEAN_MOTION_DDOT":0},{"OBJECT_NAME":"KUIPER-00107","OBJECT_ID":"2025-171P","EPOCH":"2026-07-06T14:35:53.200032","CLASSIFICATION_TYPE":"U","MEAN_MOTION":14.79932808,"ECCENTRICITY":0.0000475,"INCLINATION":51.9017,"RA_OF_ASC_NODE":342.2392,"ARG_OF_PERICENTER":103.6252,"MEAN_ANOMALY":256.4763,"EPHEMERIS_TYPE":0,"NORAD_CAT_ID":65145,"ELEMENT_SET_NO":999,"REV_AT_EPOCH":5064,"BSTAR":0.00023512,"MEAN_MOTION_DOT":0.00001572,"MEAN_MOTION_DDOT":0},{"OBJECT_NAME":"KUIPER-00108","OBJECT_ID":"2025-171Q","EPOCH":"2026-07-06T18:19:35.668128","CLASSIFICATION_TYPE":"U","MEAN_MOTION":14.79923228,"ECCENTRICITY":0.0000707,"INCLINATION":51.9015,"RA_OF_ASC_NODE":354.0872,"ARG_OF_PERICENTER":102.466,"MEAN_ANOMALY":257.6381,"EPHEMERIS_TYPE":0,"NORAD_CAT_ID":65146,"ELEMENT_SET_NO":999,"REV_AT_EPOCH":5049,"BSTAR":0.000029239,"MEAN_MOTION_DOT":2e-8,"MEAN_MOTION_DDOT":0},{"OBJECT_NAME":"KUIPER-00109","OBJECT_ID":"2025-171R","EPOCH":"2026-07-06T17:38:41.968608","CLASSIFICATION_TYPE":"U","MEAN_MOTION":14.79930226,"ECCENTRICITY":0.0000748,"INCLINATION":51.9029,"RA_OF_ASC_NODE":349.1572,"ARG_OF_PERICENTER":104.5109,"MEAN_ANOMALY":255.5936,"EPHEMERIS_TYPE":0,"NORAD_CAT_ID":65147,"ELEMENT_SET_NO":999,"REV_AT_EPOCH":5055,"BSTAR":-0.00024795,"MEAN_MOTION_DOT":-0.00002111,"MEAN_MOTION_DDOT":0},{"OBJECT_NAME":"KUIPER-00110","OBJECT_ID":"2025-171S","EPOCH":"2026-07-06T18:07:56.788032","CLASSIFICATION_TYPE":"U","MEAN_MOTION":14.79923936,"ECCENTRICITY":0.0000766,"INCLINATION":51.9008,"RA_OF_ASC_NODE":1.6264,"ARG_OF_PERICENTER":106.2419,"MEAN_ANOMALY":253.8628,"EPHEMERIS_TYPE":0,"NORAD_CAT_ID":65148,"ELEMENT_SET_NO":999,"REV_AT_EPOCH":5037,"BSTAR":-0.00001788,"MEAN_MOTION_DOT":-0.00000357,"MEAN_MOTION_DDOT":0},{"OBJECT_NAME":"KUIPER-00111","OBJECT_ID":"2025-171T","EPOCH":"2026-07-06T17:11:31.314624","CLASSIFICATION_TYPE":"U","MEAN_MOTION":14.79929501,"ECCENTRICITY":0.0000604,"INCLINATION":51.8986,"RA_OF_ASC_NODE":6.6795,"ARG_OF_PERICENTER":107.0442,"MEAN_ANOMALY":253.0586,"EPHEMERIS_TYPE":0,"NORAD_CAT_ID":65149,"ELEMENT_SET_NO":999,"REV_AT_EPOCH":5030,"BSTAR":0.00018552,"MEAN_MOTION_DOT":0.00001193,"MEAN_MOTION_DDOT":0},{"OBJECT_NAME":"KUIPER-00112","OBJECT_ID":"2025-171U","EPOCH":"2026-07-06T16:50:06.302112","CLASSIFICATION_TYPE":"U","MEAN_MOTION":14.79932593,"ECCENTRICITY":0.0000593,"INCLINATION":51.9022,"RA_OF_ASC_NODE":349.3539,"ARG_OF_PERICENTER":113.2751,"MEAN_ANOMALY":246.8274,"EPHEMERIS_TYPE":0,"NORAD_CAT_ID":65150,"ELEMENT_SET_NO":999,"REV_AT_EPOCH":5054,"BSTAR":0.00021791,"MEAN_MOTION_DOT":0.0000144,"MEAN_MOTION_DDOT":0}]}
